start=new Date('2023-04-29T00:00:00.000Z').valueOf();
sats=[{"EPHEMERIS_TYPE":"0","ELEMENT_SET_NO":"999","REV_AT_EPOCH":"9087","PERIOD":"96.107","OBJECT_TYPE":"PAYLOAD","EPOCH":"2023-04-28T04:25:34.967136","NORAD_CAT_ID":"49163","MEAN_ELEMENT_THEORY":"SGP4","RCS_SIZE":"LARGE","COUNTRY_CODE":"US","ECCENTRICITY":"0.00032580","MEAN_MOTION_DDOT":"0.0000000000000","FILE":"3895770","MEAN_MOTION_DOT":"0.00006346","RA_OF_ASC_NODE":"33.0676","CENTER_NAME":"EARTH","LAUNCH_DATE":"2021-09-14","OBJECT_NAME":"STARLINK-3088","GP_ID":"230883747","MEAN_ANOMALY":"93.9489","APOAPSIS":"574.333","DECAY_DATE":null,"TIME_SYSTEM":"UTC","BSTAR":"0.00053918000000","SITE":"AFWTR","TLE_LINE1":"1 49163U 21082AK  23118.18443249  .00006346  00000-0  53918-3 0  9994","ARG_OF_PERICENTER":"266.1298","OBJECT_ID":"2021-082AK","CLASSIFICATION_TYPE":"U","TLE_LINE2":"2 49163  70.0016  33.0676 0003258 266.1298  93.9489 14.98326551 90876","PERIAPSIS":"569.804","REF_FRAME":"TEME","INCLINATION":"70.0016","SEMIMAJOR_AXIS":"6950.204","MEAN_MOTION":"14.98326551"},{"MEAN_MOTION_DDOT":"0.0000000000000","ECCENTRICITY":"0.00032200","COUNTRY_CODE":"US","OBJECT_NAME":"STARLINK-3106","LAUNCH_DATE":"2021-09-14","CENTER_NAME":"EARTH","RA_OF_ASC_NODE":"33.0962","MEAN_MOTION_DOT":"0.00006590","FILE":"3895770","PERIOD":"96.106","REV_AT_EPOCH":"9088","ELEMENT_SET_NO":"999","EPHEMERIS_TYPE":"0","RCS_SIZE":"LARGE","MEAN_ELEMENT_THEORY":"SGP4","NORAD_CAT_ID":"49164","EPOCH":"2023-04-28T04:13:33.728448","OBJECT_TYPE":"PAYLOAD","OBJECT_ID":"2021-082AL","TLE_LINE1":"1 49164U 21082AL  23118.17608482  .00006590  00000-0  55936-3 0  9999","ARG_OF_PERICENTER":"269.4075","SITE":"AFWTR","MEAN_MOTION":"14.98343403","SEMIMAJOR_AXIS":"6950.151","INCLINATION":"70.0013","TLE_LINE2":"2 49164  70.0013  33.0962 0003220 269.4075  90.6715 14.98343403 90882","REF_FRAME":"TEME","PERIAPSIS":"569.778","CLASSIFICATION_TYPE":"U","MEAN_ANOMALY":"90.6715","GP_ID":"230883997","BSTAR":"0.00055936000000","TIME_SYSTEM":"UTC","APOAPSIS":"574.254","DECAY_DATE":null},{"PERIOD":"96.108","EPHEMERIS_TYPE":"0","ELEMENT_SET_NO":"999","REV_AT_EPOCH":"9047","MEAN_ELEMENT_THEORY":"SGP4","RCS_SIZE":"LARGE","OBJECT_TYPE":"PAYLOAD","EPOCH":"2023-04-28T12:56:53.953440","NORAD_CAT_ID":"49165","ECCENTRICITY":"0.00011920","MEAN_MOTION_DDOT":"0.0000000000000","COUNTRY_CODE":"US","LAUNCH_DATE":"2021-09-14","OBJECT_NAME":"STARLINK-3052","FILE":"3895770","MEAN_MOTION_DOT":"0.00001993","RA_OF_ASC_NODE":"52.1662","CENTER_NAME":"EARTH","MEAN_ANOMALY":"71.2343","GP_ID":"230885248","BSTAR":"0.00017478000000","APOAPSIS":"572.919","DECAY_DATE":null,"TIME_SYSTEM":"UTC","ARG_OF_PERICENTER":"288.8686","TLE_LINE1":"1 49165U 21082AM  23118.53951335  .00001993  00000-0  17478-3 0  9999","OBJECT_ID":"2021-082AM","SITE":"AFWTR","SEMIMAJOR_AXIS":"6950.226","MEAN_MOTION":"14.98319433","CLASSIFICATION_TYPE":"U","TLE_LINE2":"2 49165  70.0014  52.1662 0001192 288.8686  71.2343 14.98319433 90475","PERIAPSIS":"571.262","REF_FRAME":"TEME","INCLINATION":"70.0014"},{"GP_ID":"230895002","MEAN_ANOMALY":"94.3145","TIME_SYSTEM":"UTC","DECAY_DATE":null,"APOAPSIS":"574.376","BSTAR":"-0.00011534000000","SITE":"AFWTR","OBJECT_ID":"2021-082AN","ARG_OF_PERICENTER":"265.7629","TLE_LINE1":"1 49166U 21082AN  23118.84786308 -.00001469  00000-0 -11534-3 0  9997","INCLINATION":"70.0024","TLE_LINE2":"2 49166  70.0024  31.3971 0003375 265.7629  94.3145 14.98338780 91018","REF_FRAME":"TEME","PERIAPSIS":"569.685","CLASSIFICATION_TYPE":"U","MEAN_MOTION":"14.98338780","SEMIMAJOR_AXIS":"6950.166","REV_AT_EPOCH":"9101","ELEMENT_SET_NO":"999","EPHEMERIS_TYPE":"0","PERIOD":"96.106","NORAD_CAT_ID":"49166","EPOCH":"2023-04-28T20:20:55.370112","OBJECT_TYPE":"PAYLOAD","RCS_SIZE":"LARGE","MEAN_ELEMENT_THEORY":"SGP4","COUNTRY_CODE":"US","MEAN_MOTION_DDOT":"0.0000000000000","ECCENTRICITY":"0.00033750","CENTER_NAME":"EARTH","RA_OF_ASC_NODE":"31.3971","MEAN_MOTION_DOT":"-0.00001469","FILE":"3895991","OBJECT_NAME":"STARLINK-3089","LAUNCH_DATE":"2021-09-14"},{"MEAN_MOTION":"14.98342315","SEMIMAJOR_AXIS":"6950.155","PERIAPSIS":"570.268","TLE_LINE2":"2 49167  70.0021  52.1821 0002520 272.1827  87.9043 14.98342315 90477","REF_FRAME":"TEME","INCLINATION":"70.0021","CLASSIFICATION_TYPE":"U","OBJECT_ID":"2021-082AP","TLE_LINE1":"1 49167U 21082AP  23118.53516301 -.00000005  00000-0  73987-5 0  9994","ARG_OF_PERICENTER":"272.1827","SITE":"AFWTR","BSTAR":"0.00000739870000","TIME_SYSTEM":"UTC","DECAY_DATE":null,"APOAPSIS":"573.771","MEAN_ANOMALY":"87.9043","GP_ID":"230884247","LAUNCH_DATE":"2021-09-14","OBJECT_NAME":"STARLINK-3054","RA_OF_ASC_NODE":"52.1821","CENTER_NAME":"EARTH","MEAN_MOTION_DOT":"-0.00000005","FILE":"3895770","MEAN_MOTION_DDOT":"0.0000000000000","ECCENTRICITY":"0.00025200","COUNTRY_CODE":"US","RCS_SIZE":"LARGE","MEAN_ELEMENT_THEORY":"SGP4","NORAD_CAT_ID":"49167","OBJECT_TYPE":"PAYLOAD","EPOCH":"2023-04-28T12:50:38.084064","PERIOD":"96.106","ELEMENT_SET_NO":"999","REV_AT_EPOCH":"9047","EPHEMERIS_TYPE":"0"},{"PERIOD":"96.108","ELEMENT_SET_NO":"999","REV_AT_EPOCH":"9096","EPHEMERIS_TYPE":"0","RCS_SIZE":"LARGE","MEAN_ELEMENT_THEORY":"SGP4","NORAD_CAT_ID":"49168","OBJECT_TYPE":"PAYLOAD","EPOCH":"2023-04-28T11:56:13.257888","MEAN_MOTION_DDOT":"0.0000000000000","ECCENTRICITY":"0.00025690","COUNTRY_CODE":"US","LAUNCH_DATE":"2021-09-14","OBJECT_NAME":"STARLINK-3101","RA_OF_ASC_NODE":"32.2735","CENTER_NAME":"EARTH","MEAN_MOTION_DOT":"0.00001826","FILE":"3895770","MEAN_ANOMALY":"79.6809","GP_ID":"230884497","BSTAR":"0.00016087000000","TIME_SYSTEM":"UTC","DECAY_DATE":null,"APOAPSIS":"573.881","OBJECT_ID":"2021-082AQ","ARG_OF_PERICENTER":"280.4060","TLE_LINE1":"1 49168U 21082AQ  23118.49737567  .00001826  00000-0  16087-3 0  9996","SITE":"AFWTR","MEAN_MOTION":"14.98317936","SEMIMAJOR_AXIS":"6950.230","REF_FRAME":"TEME","TLE_LINE2":"2 49168  70.0026  32.2735 0002569 280.4060  79.6809 14.98317936 90963","PERIAPSIS":"570.310","INCLINATION":"70.0026","CLASSIFICATION_TYPE":"U"},{"OBJECT_NAME":"STARLINK-3046","LAUNCH_DATE":"2021-09-14","CENTER_NAME":"EARTH","RA_OF_ASC_NODE":"32.2733","FILE":"3895770","MEAN_MOTION_DOT":"0.00004813","MEAN_MOTION_DDOT":"0.0000000000000","ECCENTRICITY":"0.00030470","COUNTRY_CODE":"US","RCS_SIZE":"LARGE","MEAN_ELEMENT_THEORY":"SGP4","NORAD_CAT_ID":"49169","EPOCH":"2023-04-28T12:08:14.422272","OBJECT_TYPE":"PAYLOAD","PERIOD":"96.108","REV_AT_EPOCH":"8976","ELEMENT_SET_NO":"999","EPHEMERIS_TYPE":"0","MEAN_MOTION":"14.98317604","SEMIMAJOR_AXIS":"6950.231","INCLINATION":"70.0021","REF_FRAME":"TEME","TLE_LINE2":"2 49169  70.0021  32.2733 0003047 282.6745  77.4073 14.98317604 89760","PERIAPSIS":"569.978","CLASSIFICATION_TYPE":"U","OBJECT_ID":"2021-082AR","ARG_OF_PERICENTER":"282.6745","TLE_LINE1":"1 49169U 21082AR  23118.50572248  .00004813  00000-0  41104-3 0  9999","SITE":"AFWTR","BSTAR":"0.00041104000000","TIME_SYSTEM":"UTC","APOAPSIS":"574.214","DECAY_DATE":null,"MEAN_ANOMALY":"77.4073","GP_ID":"230884749"},{"SITE":"AFWTR","TLE_LINE1":"1 49170U 21082AS  23118.77716539  .00003832  00000-0  32887-3 0  9991","ARG_OF_PERICENTER":"257.6461","OBJECT_ID":"2021-082AS","CLASSIFICATION_TYPE":"U","TLE_LINE2":"2 49170  70.0023  51.5763 0002497 257.6461 102.4419 14.98323352 89317","PERIAPSIS":"570.343","REF_FRAME":"TEME","INCLINATION":"70.0023","SEMIMAJOR_AXIS":"6950.213","MEAN_MOTION":"14.98323352","GP_ID":"230892881","MEAN_ANOMALY":"102.4419","APOAPSIS":"573.814","DECAY_DATE":null,"TIME_SYSTEM":"UTC","BSTAR":"0.00032887000000","COUNTRY_CODE":"US","ECCENTRICITY":"0.00024970","MEAN_MOTION_DDOT":"0.0000000000000","MEAN_MOTION_DOT":"0.00003832","FILE":"3895896","RA_OF_ASC_NODE":"51.5763","CENTER_NAME":"EARTH","LAUNCH_DATE":"2021-09-14","OBJECT_NAME":"STARLINK-3074","EPHEMERIS_TYPE":"0","ELEMENT_SET_NO":"999","REV_AT_EPOCH":"8931","PERIOD":"96.107","OBJECT_TYPE":"PAYLOAD","EPOCH":"2023-04-28T18:39:07.089696","NORAD_CAT_ID":"49170","MEAN_ELEMENT_THEORY":"SGP4","RCS_SIZE":"LARGE"},{"LAUNCH_DATE":"2021-09-14","OBJECT_NAME":"STARLINK-3107","RA_OF_ASC_NODE":"52.1930","CENTER_NAME":"EARTH","MEAN_MOTION_DOT":"0.00003410","FILE":"3895770","MEAN_MOTION_DDOT":"0.0000000000000","ECCENTRICITY":"0.00023390","COUNTRY_CODE":"US","RCS_SIZE":"LARGE","MEAN_ELEMENT_THEORY":"SGP4","NORAD_CAT_ID":"49171","OBJECT_TYPE":"PAYLOAD","EPOCH":"2023-04-28T12:38:51.424512","PERIOD":"96.107","ELEMENT_SET_NO":"999","REV_AT_EPOCH":"9043","EPHEMERIS_TYPE":"0","MEAN_MOTION":"14.98325848","SEMIMAJOR_AXIS":"6950.206","TLE_LINE2":"2 49171  70.0031  52.1930 0002339 274.1808  85.9084 14.98325848 90434","REF_FRAME":"TEME","PERIAPSIS":"570.445","INCLINATION":"70.0031","CLASSIFICATION_TYPE":"U","OBJECT_ID":"2021-082AT","ARG_OF_PERICENTER":"274.1808","TLE_LINE1":"1 49171U 21082AT  23118.52698408  .00003410  00000-0  29350-3 0  9992","SITE":"AFWTR","BSTAR":"0.00029350000000","TIME_SYSTEM":"UTC","APOAPSIS":"573.696","DECAY_DATE":null,"MEAN_ANOMALY":"85.9084","GP_ID":"230883748"},{"BSTAR":"0.00059634000000","DECAY_DATE":null,"APOAPSIS":"574.014","TIME_SYSTEM":"UTC","MEAN_ANOMALY":"86.9359","GP_ID":"230883998","SEMIMAJOR_AXIS":"6950.193","MEAN_MOTION":"14.98330067","CLASSIFICATION_TYPE":"U","INCLINATION":"70.0014","PERIAPSIS":"570.101","TLE_LINE2":"2 49172  70.0014  33.0108 0002815 273.1478  86.9359 14.98330067 89716","REF_FRAME":"TEME","TLE_LINE1":"1 49172U 21082AU  23118.20528901  .00007030  00000-0  59634-3 0  9998","ARG_OF_PERICENTER":"273.1478","OBJECT_ID":"2021-082AU","SITE":"AFWTR","MEAN_ELEMENT_THEORY":"SGP4","RCS_SIZE":"LARGE","EPOCH":"2023-04-28T04:55:36.970464","OBJECT_TYPE":"PAYLOAD","NORAD_CAT_ID":"49172","PERIOD":"96.107","EPHEMERIS_TYPE":"0","REV_AT_EPOCH":"8971","ELEMENT_SET_NO":"999","OBJECT_NAME":"STARLINK-3091","LAUNCH_DATE":"2021-09-14","FILE":"3895770","MEAN_MOTION_DOT":"0.00007030","CENTER_NAME":"EARTH","RA_OF_ASC_NODE":"33.0108","ECCENTRICITY":"0.00028150","MEAN_MOTION_DDOT":"0.0000000000000","COUNTRY_CODE":"US"}];
